GORIZONT 1 [-]          
1 11158U 78118A   19087.93218176 -.00000026  00000-0  00000-0 0  9992
2 11158  13.4123 249.7339 3571449 219.4694 108.0370  1.00255937 96496
GORIZONT 2 [-]          
1 11440U 79062A   19088.58417833 -.00000225  00000-0  00000-0 0  9999
2 11440  11.7815 315.8892 0004688 332.7056 195.2422  1.00294340111587
GORIZONT 3 [-]          
1 11648U 79105A   19088.09980112 -.00000210  00000-0  00000-0 0  9992
2 11648  11.9078 317.1239 0008955 185.5297 166.7724  1.00201883 96032
GORIZONT 4 [-]          
1 11841U 80049A   19087.90958035 -.00000013  00000-0  00000-0 0  9995
2 11841  12.9649 321.9179 0005786 343.7618 293.5004  0.98627300207500
GORIZONT 5 [-]          
1 13092U 82020A   19088.33629153 -.00000053  00000-0  00000-0 0  9994
2 13092  13.8003 326.8005 0029472 181.6784  14.9411  0.98531586 95611
GORIZONT 6 [-]          
1 13624U 82103A   19088.37528104  .00000102  00000-0  00000+0 0  9998
2 13624  12.6783 326.6981 0002732 345.1109 208.6515  1.00322410 94493
GORIZONT 7 [-]          
1 14160U 83066A   19088.38032625 -.00000061  00000-0  00000-0 0  9998
2 14160  14.0606 334.8948 0013799 301.8278 324.0028  0.98346846128815
GORIZONT 8 [-]          
1 14532U 83118A   19088.48660531 -.00000232  00000-0  00000-0 0  9993
2 14532  14.1632 336.5486 0024685 110.8333  65.5116  0.98271566 94598
GORIZONT 9 [-]          
1 14940U 84041A   19088.04285462  .00000049  00000-0  00000-0 0  9995
2 14940  13.3851 334.9946 0002859 263.5494  18.0787  1.00293934 95495
GORIZONT 10 [-]         
1 15144U 84078A   19088.37432144  .00000082  00000-0  00000-0 0  9996
2 15144  13.4383 335.9843 0005215 333.3823 205.3089  1.00241606128134
GORIZONT 11 [-]         
1 15484U 85007A   19088.37353632  .00000074  00000-0  00000+0 0  9990
2 15484  13.5372 337.8045 0003451   2.2641 170.3178  1.00315419126171
GORIZONT 12 [-]         
1 16769U 86044A   19087.90925645 -.00000226  00000-0  00000-0 0  9997
2 16769  13.9330 342.8045 0005035 315.1537 300.4431  1.00344712120813
GORIZONT 13 [-]         
1 17083U 86090A   19087.84159514 -.00000099  00000-0  00000-0 0  9993
2 17083  15.5363 349.1527 0019788 312.9497 229.3224  0.96725610 93139
GORIZONT 14 [-]         
1 17969U 87040A   19088.40069160 -.00000062  00000-0  00000-0 0  9992
2 17969  14.8709 341.2255 0025455 140.4792 104.6186  0.97657567 94105
GORIZONT 15 [-]         
1 19017U 88028A   19087.97504269 -.00000192  00000-0  00000-0 0  9994
2 19017  15.6508 352.3108 0031191 121.6048  54.3043  0.97829771 93702
GORIZONT 16 [-]         
1 19397U 88071A   19088.48105101 -.00000123  00000-0  00000-0 0  9996
2 19397  14.5364 351.1315 0017516   8.8257 168.6220  0.99989615111872
GORIZONT 17 [-]         
1 19765U 89004A   19088.60067088 -.00000267  00000-0  00000-0 0  9996
2 19765  14.9270 354.1874 0018272  87.9201 125.4041  0.99069375109456
GORIZONT 18 [-]         
1 20107U 89052A   19087.84819017 -.00000330  00000-0  00000-0 0  9994
2 20107  14.8981 355.5052 0039184 289.5870 334.7527  0.99402528108191
GORIZONT 19 [-]         
1 20263U 89081A   19087.76672885 -.00000108  00000-0  00000-0 0  9993
2 20263  14.6529 354.8710 0005344 294.6236 248.1111  1.00189361 20894
GORIZONT 20 [-]         
1 20659U 90054A   19088.04285462  .00000045  00000-0  00000-0 0  9996
2 20659  14.9391 357.7681 0001598 176.1138  83.3918  1.00248806105252
GORIZONT 21 [-]         
1 20923U 90094A   19087.97504269 -.00000112  00000-0  00000+0 0  9999
2 20923  14.9074 358.5546 0003986 262.7928 266.6489  1.00252011103996
GORIZONT 22 [-]         
1 20953U 90102A   19088.57827170 -.00000333  00000-0  00000-0 0  9994
2 20953  14.8493 358.8417 0007760 318.7939 213.4652  1.00240654103937
GORIZONT 23 [-]         
1 21533U 91046A   19088.32158469 -.00000261  00000-0  00000+0 0  9997
2 21533  15.3999   2.7087 0009524 299.4136 335.4323  0.98910487 94642
GORIZONT 24 [-]         
1 21759U 91074A   19088.07966205 -.00000229  00000-0  00000-0 0  9990
2 21759  15.4543   4.4229 0016483 211.8697 344.2783  0.98444955 98999
GORIZONT 25 [-]         
1 21922U 92017A   19087.90991935 -.00000317  00000-0  00000-0 0  9997
2 21922  15.0181   4.0302 0027769  36.0741 223.0005  0.99847724 98600
GORIZONT 26 [-]         
1 22041U 92043A   19085.81895987 -.00000150  00000-0  00000-0 0  9992
2 22041  15.0849   5.8176 0029581 213.0736  82.9347  0.99246109 97270
GORIZONT 27 [-]         
1 22245U 92082A   19087.64156449 -.00000384  00000-0  00000-0 0  9996
2 22245  15.0101   5.7555 0017413 325.8786 203.7619  1.00173418100696
GORIZONT 28 [-]         
1 22880U 93069A   19087.84819017 -.00000359  00000-0  00000-0 0  9998
2 22880  14.9398   9.3060 0028825  94.6918 155.0199  0.99654983 92842
GORIZONT 29 [-]         
1 22907U 93072A   19088.41110067  .00000035  00000-0  00000+0 0  9994
2 22907  14.8758   8.9323 0016009 308.9783 247.8325  1.00120733 92799
GORIZONT 30 [-]         
1 23108U 94030A   19088.35268399 -.00000305  00000-0  00000-0 0  9990
2 23108  14.8367   9.8933 0004879 298.4679 316.8074  1.00340741 91032
GORIZONT 31 [-]         
1 23775U 96005A   19087.59288042 -.00000233  00000-0  00000-0 0  9996
2 23775  14.4016  15.6692 0016380 184.0024 357.3696  0.99901738 84702
GORIZONT 32 [-]         
1 23880U 96034A   19088.33337872 -.00000240  00000-0  00000-0 0  9992
2 23880  14.3182  16.2633 0013683 308.0475 260.9315  1.00150006 83630
GORIZONT 33 [-]         
1 26372U 00029A   19088.13744253 -.00000224  00000-0  00000-0 0  9995
2 26372  12.4285  26.3625 0004627 321.9910 221.6619  1.00239550 68985
